STARLINK-1514
1 26046C 20055V   21325.16511831  .00042067  00000-0  61967-3 0  3255
2 26046  53.0558 304.3493 0001714 175.6721 126.9726 15.54753709    16
